IONOSFERA-M 2           
1 61736U 24199B   26196.92094579  .00000024  00000+0  30190-4 0  9999
2 61736  98.7132  69.6951 0000525 125.7422 234.3805 14.22762613134913
PRSC-EO1                
1 62725U 25012A   26196.93829345  .00003661  00000+0  18521-3 0  9994
2 62725  97.4216 268.8344 0006837 144.3284 215.8408 15.17626423 82553
BIOMASS                 
1 63772U 25090A   26196.94549090  .00000246  00000+0  51789-4 0  9990
2 63772  98.0749  23.8418 0001492  85.5975 274.5400 14.67535572 64901
GOSAT-GW (IBUKI GW)     
1 64694U 25141A   26196.96272534  .00000285  00000+0  58739-4 0  9994
2 64694  98.0565 133.8123 0001436  84.9965 275.1403 14.67554676 56060
IONOSFERA-M 3           
1 64876U 25155A   26196.89399154  .00000004  00000+0  21325-4 0  9991
2 64876  98.6040 158.0789 0002308 111.5399 248.6025 14.21490882 50483
IONOSFERA-M 4           
1 64877U 25155B   26196.92878365  .00000010  00000+0  24149-4 0  9996
2 64877  98.6039 158.0300 0001826  98.8897 261.2487 14.21493316 50483
MICROCARB               
1 64899U 25156A   26196.21079103  .00000255  00000+0  47643-4 0  9991
2 64899  98.0075 272.9127 0017627 170.7352 189.4185 14.72885114 52098
CO3D 3                  
1 64900U 25156B   26196.88637157  .00002247  00000+0  10689-3 0  9998
2 64900  97.4335 275.1668 0001751  94.3593 265.7843 15.20194983 53896
CO3D 4                  
1 64901U 25156C   26196.88652027  .00000647  00000+0  33004-4 0  9991
2 64901  97.4336 275.1666 0001704 153.0620 207.0704 15.20189791 53894
CO3D 2                  
1 64902U 25156D   26196.91900132  .00002148  00000+0  10230-3 0  9992
2 64902  97.4336 275.0978 0001247  89.8927 270.2451 15.20204655 53896
CO3D 1                  
1 64903U 25156E   26196.91915508  .00002256  00000+0  10732-3 0  9993
2 64903  97.4336 275.0978 0001315 101.0124 259.1259 15.20204824 53899
PRSC-S1                 
1 65055U 25164A   26196.90239772  .00002105  00000+0  15127-3 0  9998
2 65055  41.1300 126.0611 0006822 202.4561 157.5955 15.06638140 52768
SENTINEL-6B             
1 66514U 25264A   26196.89585102 -.00000040  00000+0  91101-4 0  9993
2 66514  66.0413  75.5515 0007842 268.6793  91.3323 12.80930176 30847
CAS500-3                
1 66655U 25274F   26196.78785449  .00000592  00000+0  69728-4 0  9995
2 66655  97.7437 124.1886 0006209  36.7609 323.4033 14.88384758 34400
CSG-3                   
1 67304U 26001A   26194.52815792  .00000135  00000+0  23485-4 0  9994
2 67304  97.8894  17.7492 0001518  93.3222 266.8165 14.82151371 28369
PRSC-E03                
1 68835U 26092A   26196.68523524  .00001218  00000+0  87501-4 0  9994
2 68835  38.0012 281.6164 0004941 254.1915 105.8302 15.06810605 12250
CAS500-2                
1 69013U 26100AK  26196.64306276  .00003365  00000+0  15519-3 0  9996
2 69013  97.3865  93.9580 0007774 289.9986  70.0412 15.20905560 11132
