OBJECT_NAME,OBJECT_ID,EPOCH,MEAN_MOTION,ECCENTRICITY,INCLINATION,RA_OF_ASC_NODE,ARG_OF_PERICENTER,MEAN_ANOMALY,EPHEMERIS_TYPE,CLASSIFICATION_TYPE,NORAD_CAT_ID,ELEMENT_SET_NO,REV_AT_EPOCH,BSTAR,MEAN_MOTION_DOT,MEAN_MOTION_DDOT
IONOSFERA-M 2,2024-199B,2026-07-15T22:06:09.716256,14.22762613,.00005252,98.7132,69.6951,125.7422,234.3805,0,U,61736,999,13491,.30190348E-4,.24E-6,0
PRSC-EO1,2025-012A,2026-07-15T22:31:08.554080,15.17626423,.00068371,97.4216,268.8344,144.3284,215.8408,0,U,62725,999,8255,.18521165E-3,.3661E-4,0
BIOMASS,2025-090A,2026-07-15T22:41:30.413760,14.67535572,.00014929,98.0749,23.8418,85.5975,274.5400,0,U,63772,999,6490,.51789016E-4,.246E-5,0
GOSAT-GW (IBUKI GW),2025-141A,2026-07-15T23:06:19.469376,14.67554676,.00014364,98.0565,133.8123,84.9965,275.1403,0,U,64694,999,5606,.58739476E-4,.285E-5,0
IONOSFERA-M 3,2025-155A,2026-07-15T21:27:20.869056,14.21490882,.00023083,98.6040,158.0789,111.5399,248.6025,0,U,64876,999,5048,.21325063E-4,.4E-7,0
IONOSFERA-M 4,2025-155B,2026-07-15T22:17:26.907360,14.21493316,.00018263,98.6039,158.0300,98.8897,261.2487,0,U,64877,999,5048,.24149478E-4,.1E-6,0
MICROCARB,2025-156A,2026-07-15T05:03:32.344992,14.72885114,.00176275,98.0075,272.9127,170.7352,189.4185,0,U,64899,999,5209,.47642611E-4,.255E-5,0
CO3D 3,2025-156B,2026-07-15T21:16:22.503648,15.20194983,.00017514,97.4335,275.1668,94.3593,265.7843,0,U,64900,999,5389,.1068877E-3,.2247E-4,0
CO3D 4,2025-156C,2026-07-15T21:16:35.351328,15.20189791,.00017041,97.4336,275.1666,153.0620,207.0704,0,U,64901,999,5389,.33004306E-4,.647E-5,0
CO3D 2,2025-156D,2026-07-15T22:03:21.714048,15.20204655,.00012478,97.4336,275.0978,89.8927,270.2451,0,U,64902,999,5389,.102298E-3,.2148E-4,0
CO3D 1,2025-156E,2026-07-15T22:03:34.998912,15.20204824,.00013156,97.4336,275.0978,101.0124,259.1259,0,U,64903,999,5389,.10731508E-3,.2256E-4,0
PRSC-S1,2025-164A,2026-07-15T21:39:27.163008,15.06638140,.00068227,41.1300,126.0611,202.4561,157.5955,0,U,65055,999,5276,.15127322E-3,.2105E-4,0
SENTINEL-6B,2025-264A,2026-07-15T21:30:01.528128,12.80930176,.00078425,66.0413,75.5515,268.6793,91.3323,0,U,66514,999,3084,.91101E-4,-.4E-6,0
CAS500-3,2025-274F,2026-07-15T18:54:30.627936,14.88384758,.00062091,97.7437,124.1886,36.7609,323.4033,0,U,66655,999,3440,.69727582E-4,.592E-5,0
CSG-3,2026-001A,2026-07-13T12:40:32.844288,14.82151371,.00015181,97.8894,17.7492,93.3222,266.8165,0,U,67304,999,2836,.2348529E-4,.135E-5,0
PRSC-E03,2026-092A,2026-07-15T16:26:44.324736,15.06810605,.00049414,38.0012,281.6164,254.1915,105.8302,0,U,68835,999,1225,.87500682E-4,.1218E-4,0
CAS500-2,2026-100AK,2026-07-15T15:26:00.622464,15.20905560,.00077746,97.3865,93.9580,289.9986,70.0412,0,U,69013,999,1113,.15518548E-3,.3365E-4,0
